AEROCUBE 6B             
1 40046U 14033AN  26068.42625992  .00007941  00000+0  66368-3 0  9998
2 40046  97.7129 236.1645 0037452 343.2300  16.7681 14.98232474631816
STARLINK-5850           
1 57049U 23088B   26068.81430498 -.00001573  00000+0 -10138-3 0  9998
2 57049  43.0034 107.2133 0001367 266.6473  93.4213 15.02527791150578
